{"fetched_at":"2026-07-21T17:53:31.607Z","source":"https://celestrak.org/NORAD/elements/gp.php?NAME=HULIANWANG&FORMAT=JSON","constellation":"guowang","records":[{"OBJECT_NAME":"HULIANWANG DIGUI-124","OBJECT_ID":"2025-295F","EPOCH":"2026-07-21T04:06:24.613344","CLASSIFICATION_TYPE":"U","MEAN_MOTION":13.29329511,"ECCENTRICITY":0.00011348,"INCLINATION":49.999,"RA_OF_ASC_NODE":263.4565,"ARG_OF_PERICENTER":214.1318,"MEAN_ANOMALY":145.9481,"EPHEMERIS_TYPE":0,"NORAD_CAT_ID":67064,"ELEMENT_SET_NO":999,"REV_AT_EPOCH":3002,"BSTAR":0.000056537127,"MEAN_MOTION_DOT":-9.8e-7,"MEAN_MOTION_DDOT":0},{"OBJECT_NAME":"HULIANWANG DIGUI-125","OBJECT_ID":"2025-295G","EPOCH":"2026-07-21T03:54:16.933536","CLASSIFICATION_TYPE":"U","MEAN_MOTION":13.29330132,"ECCENTRICITY":0.00011085,"INCLINATION":49.9981,"RA_OF_ASC_NODE":263.3959,"ARG_OF_PERICENTER":213.1158,"MEAN_ANOMALY":146.9645,"EPHEMERIS_TYPE":0,"NORAD_CAT_ID":67065,"ELEMENT_SET_NO":999,"REV_AT_EPOCH":3002,"BSTAR":0.000059191148,"MEAN_MOTION_DOT":-9.7e-7,"MEAN_MOTION_DDOT":0},{"OBJECT_NAME":"HULIANWANG DIGUI-126","OBJECT_ID":"2025-295H","EPOCH":"2026-07-21T05:30:30.143520","CLASSIFICATION_TYPE":"U","MEAN_MOTION":13.29323033,"ECCENTRICITY":0.00011472,"INCLINATION":49.9984,"RA_OF_ASC_NODE":263.0873,"ARG_OF_PERICENTER":209.7271,"MEAN_ANOMALY":150.3536,"EPHEMERIS_TYPE":0,"NORAD_CAT_ID":67066,"ELEMENT_SET_NO":999,"REV_AT_EPOCH":3003,"BSTAR":0.000056095011,"MEAN_MOTION_DOT":-9.8e-7,"MEAN_MOTION_DDOT":0},{"OBJECT_NAME":"HULIANWANG DIGUI-127","OBJECT_ID":"2025-295J","EPOCH":"2026-07-21T05:18:21.504672","CLASSIFICATION_TYPE":"U","MEAN_MOTION":13.29331254,"ECCENTRICITY":0.00011355,"INCLINATION":50.0002,"RA_OF_ASC_NODE":263.0789,"ARG_OF_PERICENTER":213.4677,"MEAN_ANOMALY":146.6124,"EPHEMERIS_TYPE":0,"NORAD_CAT_ID":67067,"ELEMENT_SET_NO":999,"REV_AT_EPOCH":3003,"BSTAR":0.00006017049,"MEAN_MOTION_DOT":-9.6e-7,"MEAN_MOTION_DDOT":0},{"OBJECT_NAME":"HULIANWANG DIGUI-128","OBJECT_ID":"2025-311A","EPOCH":"2026-07-20T20:48:55.898496","CLASSIFICATION_TYPE":"U","MEAN_MOTION":13.29323888,"ECCENTRICITY":0.0000914,"INCLINATION":50.0101,"RA_OF_ASC_NODE":354.7655,"ARG_OF_PERICENTER":93.8659,"MEAN_ANOMALY":266.2318,"EPHEMERIS_TYPE":0,"NORAD_CAT_ID":67236,"ELEMENT_SET_NO":999,"REV_AT_EPOCH":2782,"BSTAR":0.000052175306,"MEAN_MOTION_DOT":-0.000001,"MEAN_MOTION_DDOT":0},{"OBJECT_NAME":"HULIANWANG DIGUI-129","OBJECT_ID":"2025-311B","EPOCH":"2026-07-21T02:25:37.500672","CLASSIFICATION_TYPE":"U","MEAN_MOTION":13.29325087,"ECCENTRICITY":0.00008475,"INCLINATION":50.0091,"RA_OF_ASC_NODE":353.981,"ARG_OF_PERICENTER":96.5385,"MEAN_ANOMALY":263.5583,"EPHEMERIS_TYPE":0,"NORAD_CAT_ID":67237,"ELEMENT_SET_NO":999,"REV_AT_EPOCH":2785,"BSTAR":0.00004443386,"MEAN_MOTION_DOT":-0.00000103,"MEAN_MOTION_DDOT":0},{"OBJECT_NAME":"HULIANWANG DIGUI-130","OBJECT_ID":"2025-311C","EPOCH":"2026-07-21T03:37:53.482944","CLASSIFICATION_TYPE":"U","MEAN_MOTION":13.29323771,"ECCENTRICITY":0.0000938,"INCLINATION":50.0075,"RA_OF_ASC_NODE":354.2025,"ARG_OF_PERICENTER":94.437,"MEAN_ANOMALY":265.6609,"EPHEMERIS_TYPE":0,"NORAD_CAT_ID":67238,"ELEMENT_SET_NO":999,"REV_AT_EPOCH":2785,"BSTAR":0.000023836505,"MEAN_MOTION_DOT":-0.00000113,"MEAN_MOTION_DDOT":0},{"OBJECT_NAME":"HULIANWANG DIGUI-131","OBJECT_ID":"2025-311D","EPOCH":"2026-07-21T03:49:56.364096","CLASSIFICATION_TYPE":"U","MEAN_MOTION":13.29323564,"ECCENTRICITY":0.00009551,"INCLINATION":50.0069,"RA_OF_ASC_NODE":354.2377,"ARG_OF_PERICENTER":94.3864,"MEAN_ANOMALY":265.7117,"EPHEMERIS_TYPE":0,"NORAD_CAT_ID":67239,"ELEMENT_SET_NO":999,"REV_AT_EPOCH":2785,"BSTAR":0.00003600302,"MEAN_MOTION_DOT":-0.00000107,"MEAN_MOTION_DDOT":0},{"OBJECT_NAME":"HULIANWANG DIGUI-132","OBJECT_ID":"2025-311E","EPOCH":"2026-07-20T16:24:14.933088","CLASSIFICATION_TYPE":"U","MEAN_MOTION":13.29324362,"ECCENTRICITY":0.00008924,"INCLINATION":50.008,"RA_OF_ASC_NODE":355.7468,"ARG_OF_PERICENTER":92.443,"MEAN_ANOMALY":267.6545,"EPHEMERIS_TYPE":0,"NORAD_CAT_ID":67240,"ELEMENT_SET_NO":999,"REV_AT_EPOCH":2779,"BSTAR":0.000031551854,"MEAN_MOTION_DOT":-0.00000109,"MEAN_MOTION_DDOT":0},{"OBJECT_NAME":"HULIANWANG DIGUI-133","OBJECT_ID":"2025-311F","EPOCH":"2026-07-21T02:49:46.968672","CLASSIFICATION_TYPE":"U","MEAN_MOTION":13.29324219,"ECCENTRICITY":0.00008785,"INCLINATION":50.0123,"RA_OF_ASC_NODE":354.119,"ARG_OF_PERICENTER":95.1831,"MEAN_ANOMALY":264.9141,"EPHEMERIS_TYPE":0,"NORAD_CAT_ID":67241,"ELEMENT_SET_NO":999,"REV_AT_EPOCH":2785,"BSTAR":0.000013169275,"MEAN_MOTION_DOT":-0.00000118,"MEAN_MOTION_DDOT":0},{"OBJECT_NAME":"HULIANWANG DIGUI-134","OBJECT_ID":"2025-311G","EPOCH":"2026-07-21T03:01:45.891840","CLASSIFICATION_TYPE":"U","MEAN_MOTION":13.2932403,"ECCENTRICITY":0.0000896,"INCLINATION":50.0052,"RA_OF_ASC_NODE":354.0433,"ARG_OF_PERICENTER":94.5943,"MEAN_ANOMALY":265.5031,"EPHEMERIS_TYPE":0,"NORAD_CAT_ID":67242,"ELEMENT_SET_NO":999,"REV_AT_EPOCH":2785,"BSTAR":0.000017921309,"MEAN_MOTION_DOT":-0.00000116,"MEAN_MOTION_DDOT":0},{"OBJECT_NAME":"HULIANWANG DIGUI-135","OBJECT_ID":"2025-311H","EPOCH":"2026-07-20T18:24:32.205888","CLASSIFICATION_TYPE":"U","MEAN_MOTION":13.29323669,"ECCENTRICITY":0.00009046,"INCLINATION":50.0037,"RA_OF_ASC_NODE":355.4535,"ARG_OF_PERICENTER":93.3512,"MEAN_ANOMALY":266.7464,"EPHEMERIS_TYPE":0,"NORAD_CAT_ID":67243,"ELEMENT_SET_NO":999,"REV_AT_EPOCH":2780,"BSTAR":-0.000016954339,"MEAN_MOTION_DOT":-0.00000132,"MEAN_MOTION_DDOT":0},{"OBJECT_NAME":"HULIANWANG DIGUI-136","OBJECT_ID":"2025-311J","EPOCH":"2026-07-20T17:36:23.759712","CLASSIFICATION_TYPE":"U","MEAN_MOTION":13.29324669,"ECCENTRICITY":0.00008372,"INCLINATION":50.0112,"RA_OF_ASC_NODE":355.4034,"ARG_OF_PERICENTER":96.3153,"MEAN_ANOMALY":263.7815,"EPHEMERIS_TYPE":0,"NORAD_CAT_ID":67244,"ELEMENT_SET_NO":999,"REV_AT_EPOCH":2780,"BSTAR":0.000028995281,"MEAN_MOTION_DOT":-0.00000111,"MEAN_MOTION_DDOT":0},{"OBJECT_NAME":"HULIANWANG DIGUI-137","OBJECT_ID":"2026-007A","EPOCH":"2026-07-21T01:28:59.840544","CLASSIFICATION_TYPE":"U","MEAN_MOTION":13.29327186,"ECCENTRICITY":0.0000888,"INCLINATION":50.01,"RA_OF_ASC_NODE":324.3686,"ARG_OF_PERICENTER":135.0243,"MEAN_ANOMALY":225.0701,"EPHEMERIS_TYPE":0,"NORAD_CAT_ID":67435,"ELEMENT_SET_NO":999,"REV_AT_EPOCH":2529,"BSTAR":0.000038265463,"MEAN_MOTION_DOT":-0.00000106,"MEAN_MOTION_DDOT":0},{"OBJECT_NAME":"HULIANWANG DIGUI-138","OBJECT_ID":"2026-007B","EPOCH":"2026-07-21T01:53:06.626688","CLASSIFICATION_TYPE":"U","MEAN_MOTION":13.2932554,"ECCENTRICITY":0.00008718,"INCLINATION":50.0077,"RA_OF_ASC_NODE":324.4236,"ARG_OF_PERICENTER":132.8564,"MEAN_ANOMALY":227.2381,"EPHEMERIS_TYPE":0,"NORAD_CAT_ID":67436,"ELEMENT_SET_NO":999,"REV_AT_EPOCH":2529,"BSTAR":0.000058746041,"MEAN_MOTION_DOT":-9.7e-7,"MEAN_MOTION_DDOT":0},{"OBJECT_NAME":"HULIANWANG DIGUI-139","OBJECT_ID":"2026-007C","EPOCH":"2026-07-20T09:26:29.533632","CLASSIFICATION_TYPE":"U","MEAN_MOTION":13.29328484,"ECCENTRICITY":0.00008575,"INCLINATION":50.0046,"RA_OF_ASC_NODE":326.7604,"ARG_OF_PERICENTER":118.8183,"MEAN_ANOMALY":241.2775,"EPHEMERIS_TYPE":0,"NORAD_CAT_ID":67437,"ELEMENT_SET_NO":999,"REV_AT_EPOCH":2520,"BSTAR":0.000060030741,"MEAN_MOTION_DOT":-9.6e-7,"MEAN_MOTION_DDOT":0}]}
