HULIANWANG DIGUI-124    
1 67064U 25295F   26202.17111821 -.00000098  00000+0  56537-4 0  9997
2 67064  49.9990 263.4565 0001134 214.1318 145.9481 13.29329511 30028
HULIANWANG DIGUI-125    
1 67065U 25295G   26202.16269599 -.00000097  00000+0  59191-4 0  9991
2 67065  49.9981 263.3959 0001108 213.1158 146.9645 13.29330132 30021
HULIANWANG DIGUI-126    
1 67066U 25295H   26202.22951555 -.00000098  00000+0  56095-4 0  9990
2 67066  49.9984 263.0873 0001147 209.7271 150.3536 13.29323033 30038
HULIANWANG DIGUI-127    
1 67067U 25295J   26202.22108223 -.00000096  00000+0  60170-4 0  9994
2 67067  50.0002 263.0789 0001135 213.4677 146.6124 13.29331254 30033
HULIANWANG DIGUI-128    
1 67236U 25311A   26201.86731364 -.00000100  00000+0  52175-4 0  9990
2 67236  50.0101 354.7655 0000914  93.8659 266.2318 13.29323888 27826
HULIANWANG DIGUI-129    
1 67237U 25311B   26202.10112848 -.00000103  00000+0  44434-4 0  9991
2 67237  50.0091 353.9810 0000847  96.5385 263.5583 13.29325087 27850
HULIANWANG DIGUI-130    
1 67238U 25311C   26202.15131346 -.00000113  00000+0  23837-4 0  9996
2 67238  50.0075 354.2025 0000938  94.4370 265.6609 13.29323771 27857
HULIANWANG DIGUI-131    
1 67239U 25311D   26202.15968014 -.00000107  00000+0  36003-4 0  9999
2 67239  50.0069 354.2377 0000955  94.3864 265.7117 13.29323564 27852
HULIANWANG DIGUI-132    
1 67240U 25311E   26201.68350617 -.00000109  00000+0  31552-4 0  9998
2 67240  50.0080 355.7468 0000892  92.4430 267.6545 13.29324362 27798
HULIANWANG DIGUI-133    
1 67241U 25311F   26202.11790473 -.00000118  00000+0  13169-4 0  9990
2 67241  50.0123 354.1190 0000878  95.1831 264.9141 13.29324219 27851
HULIANWANG DIGUI-134    
1 67242U 25311G   26202.12622560 -.00000116  00000+0  17921-4 0  9991
2 67242  50.0052 354.0433 0000896  94.5943 265.5031 13.29324030 27855
HULIANWANG DIGUI-135    
1 67243U 25311H   26201.76703942 -.00000132  00000+0 -16954-4 0  9999
2 67243  50.0037 355.4535 0000904  93.3512 266.7464 13.29323669 27801
HULIANWANG DIGUI-136    
1 67244U 25311J   26201.73360833 -.00000111  00000+0  28995-4 0  9999
2 67244  50.0112 355.4034 0000837  96.3153 263.7815 13.29324669 27807
HULIANWANG DIGUI-137    
1 67435U 26007A   26202.06180371 -.00000106  00000+0  38265-4 0  9993
2 67435  50.0100 324.3686 0000888 135.0243 225.0701 13.29327186 25294
HULIANWANG DIGUI-138    
1 67436U 26007B   26202.07854892 -.00000097  00000+0  58746-4 0  9996
2 67436  50.0077 324.4236 0000871 132.8564 227.2381 13.29325540 25293
HULIANWANG DIGUI-139    
1 67437U 26007C   26201.39339738 -.00000096  00000+0  60031-4 0  9997
2 67437  50.0046 326.7604 0000857 118.8183 241.2775 13.29328484 25203
